STARLINK-36782          
1 67805U 26032J   26066.91668981  .00099805  00000+0  66325-3 0  9992
2 67805  97.2854 253.3907 0001568 109.7895  89.2965 15.75153584  4491
STARLINK-36389          
1 67806U 26032K   26066.95851674  .00132413  00000+0  87403-3 0  9993
2 67806  97.2841 253.4016 0001818  79.9191 280.2280 15.75213101  4513
STARLINK-36382          
1 67807U 26032L   26066.95639928  .00136136  00000+0  89803-3 0  9992
2 67807  97.2843 253.4038 0001597  88.8702 271.2746 15.75217585  4518
STARLINK-36811          
1 67808U 26032M   26066.91668981  .00165291  00000+0  10922-2 0  9999
2 67808  97.2855 253.3871 0001423 100.9343  90.1931 15.75094813  4499
STARLINK-36795          
1 67809U 26032N   26066.96345932  .00215000  00000+0  14029-2 0  9999
2 67809  97.2839 253.3942 0002483  68.1358 292.0171 15.75245987  4511
STARLINK-36807          
1 67810U 26032P   26066.91668981  .00199897  00000+0  13163-2 0  9991
2 67810  97.2856 253.3832 0001398 113.1775  71.9585 15.75077255  4499
STARLINK-36733          
1 67811U 26032Q   26065.98599289  .00340272  00000+0  16957-2 0  9991
2 67811  97.2826 252.4272 0001019  92.9065 267.2320 15.80984946  4364
STARLINK-36377          
1 67812U 26032R   26066.91668981  .00095142  00000+0  63258-3 0  9992
2 67812  97.2849 253.4112 0001839  95.0370 158.0190 15.75155518  4492
STARLINK-36732          
1 67813U 26032S   26066.91668981  .00127076  00000+0  84348-3 0  9998
2 67813  97.2855 253.3984 0000989  88.8416 136.2861 15.75100593  4498
STARLINK-36767          
1 67814U 26032T   26066.96028091  .00135227  00000+0  89189-3 0  9991
2 67814  97.2838 253.3970 0001431  96.7196 263.4232 15.75224042  4515
STARLINK-36797          
1 67815U 26032U   26066.95145869  .00212443  00000+0  13866-2 0  9998
2 67815  97.2849 253.4099 0001589  87.7710 272.3737 15.75246660  4516
STARLINK-36343          
1 67816U 26032V   26066.91668981 -.00147718  00000+0 -10021-2 0  9994
2 67816  97.2847 253.4196 0001671  87.9537 187.0656 15.75295063  4438
