CCSDS_OMM_VERS = 2.0
CREATION_DATE  = 
ORIGINATOR     = 

OBJECT_NAME    = STARLINK-36782
OBJECT_ID      = 2026-032J
CENTER_NAME    = EARTH
REF_FRAME      = TEME
TIME_SYSTEM    = UTC
MEAN_ELEMENT_THEORY = SGP/SGP4

EPOCH          = 2026-03-07T22:00:01.999584
MEAN_MOTION    = 15.75153584
ECCENTRICITY   = .00015684
INCLINATION    = 97.2854
RA_OF_ASC_NODE = 253.3907
ARG_OF_PERICENTER = 109.7895
MEAN_ANOMALY   = 89.2965

EPHEMERIS_TYPE = 0
CLASSIFICATION_TYPE = U
NORAD_CAT_ID   = 67805
ELEMENT_SET_NO = 999
REV_AT_EPOCH   = 449
BSTAR          = .66324558E-3
MEAN_MOTION_DOT = .99805E-3
MEAN_MOTION_DDOT = 0

CCSDS_OMM_VERS = 2.0
CREATION_DATE  = 
ORIGINATOR     = 

OBJECT_NAME    = STARLINK-36389
OBJECT_ID      = 2026-032K
CENTER_NAME    = EARTH
REF_FRAME      = TEME
TIME_SYSTEM    = UTC
MEAN_ELEMENT_THEORY = SGP/SGP4

EPOCH          = 2026-03-07T23:00:15.846336
MEAN_MOTION    = 15.75213101
ECCENTRICITY   = .00018184
INCLINATION    = 97.2841
RA_OF_ASC_NODE = 253.4016
ARG_OF_PERICENTER = 79.9191
MEAN_ANOMALY   = 280.2280

EPHEMERIS_TYPE = 0
CLASSIFICATION_TYPE = U
NORAD_CAT_ID   = 67806
ELEMENT_SET_NO = 999
REV_AT_EPOCH   = 451
BSTAR          = .87403269E-3
MEAN_MOTION_DOT = .132413E-2
MEAN_MOTION_DDOT = 0

CCSDS_OMM_VERS = 2.0
CREATION_DATE  = 
ORIGINATOR     = 

OBJECT_NAME    = STARLINK-36382
OBJECT_ID      = 2026-032L
CENTER_NAME    = EARTH
REF_FRAME      = TEME
TIME_SYSTEM    = UTC
MEAN_ELEMENT_THEORY = SGP/SGP4

EPOCH          = 2026-03-07T22:57:12.897792
MEAN_MOTION    = 15.75217585
ECCENTRICITY   = .00015973
INCLINATION    = 97.2843
RA_OF_ASC_NODE = 253.4038
ARG_OF_PERICENTER = 88.8702
MEAN_ANOMALY   = 271.2746

EPHEMERIS_TYPE = 0
CLASSIFICATION_TYPE = U
NORAD_CAT_ID   = 67807
ELEMENT_SET_NO = 999
REV_AT_EPOCH   = 451
BSTAR          = .89802958E-3
MEAN_MOTION_DOT = .136136E-2
MEAN_MOTION_DDOT = 0

CCSDS_OMM_VERS = 2.0
CREATION_DATE  = 
ORIGINATOR     = 

OBJECT_NAME    = STARLINK-36811
OBJECT_ID      = 2026-032M
CENTER_NAME    = EARTH
REF_FRAME      = TEME
TIME_SYSTEM    = UTC
MEAN_ELEMENT_THEORY = SGP/SGP4

EPOCH          = 2026-03-07T22:00:01.999584
MEAN_MOTION    = 15.75094813
ECCENTRICITY   = .0001423
INCLINATION    = 97.2855
RA_OF_ASC_NODE = 253.3871
ARG_OF_PERICENTER = 100.9343
MEAN_ANOMALY   = 90.1931

EPHEMERIS_TYPE = 0
CLASSIFICATION_TYPE = U
NORAD_CAT_ID   = 67808
ELEMENT_SET_NO = 999
REV_AT_EPOCH   = 449
BSTAR          = .1092216E-2
MEAN_MOTION_DOT = .165291E-2
MEAN_MOTION_DDOT = 0

CCSDS_OMM_VERS = 2.0
CREATION_DATE  = 
ORIGINATOR     = 

OBJECT_NAME    = STARLINK-36795
OBJECT_ID      = 2026-032N
CENTER_NAME    = EARTH
REF_FRAME      = TEME
TIME_SYSTEM    = UTC
MEAN_ELEMENT_THEORY = SGP/SGP4

EPOCH          = 2026-03-07T23:07:22.885248
MEAN_MOTION    = 15.75245987
ECCENTRICITY   = .00024838
INCLINATION    = 97.2839
RA_OF_ASC_NODE = 253.3942
ARG_OF_PERICENTER = 68.1358
MEAN_ANOMALY   = 292.0171

EPHEMERIS_TYPE = 0
CLASSIFICATION_TYPE = U
NORAD_CAT_ID   = 67809
ELEMENT_SET_NO = 999
REV_AT_EPOCH   = 451
BSTAR          = .14028604E-2
MEAN_MOTION_DOT = .215E-2
MEAN_MOTION_DDOT = 0

CCSDS_OMM_VERS = 2.0
CREATION_DATE  = 
ORIGINATOR     = 

OBJECT_NAME    = STARLINK-36807
OBJECT_ID      = 2026-032P
CENTER_NAME    = EARTH
REF_FRAME      = TEME
TIME_SYSTEM    = UTC
MEAN_ELEMENT_THEORY = SGP/SGP4

EPOCH          = 2026-03-07T22:00:01.999584
MEAN_MOTION    = 15.75077255
ECCENTRICITY   = .00013983
INCLINATION    = 97.2856
RA_OF_ASC_NODE = 253.3832
ARG_OF_PERICENTER = 113.1775
MEAN_ANOMALY   = 71.9585

EPHEMERIS_TYPE = 0
CLASSIFICATION_TYPE = U
NORAD_CAT_ID   = 67810
ELEMENT_SET_NO = 999
REV_AT_EPOCH   = 449
BSTAR          = .13163267E-2
MEAN_MOTION_DOT = .199897E-2
MEAN_MOTION_DDOT = 0

CCSDS_OMM_VERS = 2.0
CREATION_DATE  = 
ORIGINATOR     = 

OBJECT_NAME    = STARLINK-36733
OBJECT_ID      = 2026-032Q
CENTER_NAME    = EARTH
REF_FRAME      = TEME
TIME_SYSTEM    = UTC
MEAN_ELEMENT_THEORY = SGP/SGP4

EPOCH          = 2026-03-06T23:39:49.785696
MEAN_MOTION    = 15.80984946
ECCENTRICITY   = .00010197
INCLINATION    = 97.2826
RA_OF_ASC_NODE = 252.4272
ARG_OF_PERICENTER = 92.9065
MEAN_ANOMALY   = 267.2320

EPHEMERIS_TYPE = 0
CLASSIFICATION_TYPE = U
NORAD_CAT_ID   = 67811
ELEMENT_SET_NO = 999
REV_AT_EPOCH   = 436
BSTAR          = .1695664E-2
MEAN_MOTION_DOT = .340272E-2
MEAN_MOTION_DDOT = 0

CCSDS_OMM_VERS = 2.0
CREATION_DATE  = 
ORIGINATOR     = 

OBJECT_NAME    = STARLINK-36377
OBJECT_ID      = 2026-032R
CENTER_NAME    = EARTH
REF_FRAME      = TEME
TIME_SYSTEM    = UTC
MEAN_ELEMENT_THEORY = SGP/SGP4

EPOCH          = 2026-03-07T22:00:01.999584
MEAN_MOTION    = 15.75155518
ECCENTRICITY   = .00018394
INCLINATION    = 97.2849
RA_OF_ASC_NODE = 253.4112
ARG_OF_PERICENTER = 95.0370
MEAN_ANOMALY   = 158.0190

EPHEMERIS_TYPE = 0
CLASSIFICATION_TYPE = U
NORAD_CAT_ID   = 67812
ELEMENT_SET_NO = 999
REV_AT_EPOCH   = 449
BSTAR          = .63258281E-3
MEAN_MOTION_DOT = .95142E-3
MEAN_MOTION_DDOT = 0

CCSDS_OMM_VERS = 2.0
CREATION_DATE  = 
ORIGINATOR     = 

OBJECT_NAME    = STARLINK-36732
OBJECT_ID      = 2026-032S
CENTER_NAME    = EARTH
REF_FRAME      = TEME
TIME_SYSTEM    = UTC
MEAN_ELEMENT_THEORY = SGP/SGP4

EPOCH          = 2026-03-07T22:00:01.999584
MEAN_MOTION    = 15.75100593
ECCENTRICITY   = .00009891
INCLINATION    = 97.2855
RA_OF_ASC_NODE = 253.3984
ARG_OF_PERICENTER = 88.8416
MEAN_ANOMALY   = 136.2861

EPHEMERIS_TYPE = 0
CLASSIFICATION_TYPE = U
NORAD_CAT_ID   = 67813
ELEMENT_SET_NO = 999
REV_AT_EPOCH   = 449
BSTAR          = .84348072E-3
MEAN_MOTION_DOT = .127076E-2
MEAN_MOTION_DDOT = 0

CCSDS_OMM_VERS = 2.0
CREATION_DATE  = 
ORIGINATOR     = 

OBJECT_NAME    = STARLINK-36767
OBJECT_ID      = 2026-032T
CENTER_NAME    = EARTH
REF_FRAME      = TEME
TIME_SYSTEM    = UTC
MEAN_ELEMENT_THEORY = SGP/SGP4

EPOCH          = 2026-03-07T23:02:48.270624
MEAN_MOTION    = 15.75224042
ECCENTRICITY   = .0001431
INCLINATION    = 97.2838
RA_OF_ASC_NODE = 253.3970
ARG_OF_PERICENTER = 96.7196
MEAN_ANOMALY   = 263.4232

EPHEMERIS_TYPE = 0
CLASSIFICATION_TYPE = U
NORAD_CAT_ID   = 67814
ELEMENT_SET_NO = 999
REV_AT_EPOCH   = 451
BSTAR          = .89189158E-3
MEAN_MOTION_DOT = .135227E-2
MEAN_MOTION_DDOT = 0

CCSDS_OMM_VERS = 2.0
CREATION_DATE  = 
ORIGINATOR     = 

OBJECT_NAME    = STARLINK-36797
OBJECT_ID      = 2026-032U
CENTER_NAME    = EARTH
REF_FRAME      = TEME
TIME_SYSTEM    = UTC
MEAN_ELEMENT_THEORY = SGP/SGP4

EPOCH          = 2026-03-07T22:50:06.030816
MEAN_MOTION    = 15.75246660
ECCENTRICITY   = .00015891
INCLINATION    = 97.2849
RA_OF_ASC_NODE = 253.4099
ARG_OF_PERICENTER = 87.7710
MEAN_ANOMALY   = 272.3737

EPHEMERIS_TYPE = 0
CLASSIFICATION_TYPE = U
NORAD_CAT_ID   = 67815
ELEMENT_SET_NO = 999
REV_AT_EPOCH   = 451
BSTAR          = .13866346E-2
MEAN_MOTION_DOT = .212443E-2
MEAN_MOTION_DDOT = 0

CCSDS_OMM_VERS = 2.0
CREATION_DATE  = 
ORIGINATOR     = 

OBJECT_NAME    = STARLINK-36343
OBJECT_ID      = 2026-032V
CENTER_NAME    = EARTH
REF_FRAME      = TEME
TIME_SYSTEM    = UTC
MEAN_ELEMENT_THEORY = SGP/SGP4

EPOCH          = 2026-03-07T22:00:01.999584
MEAN_MOTION    = 15.75295063
ECCENTRICITY   = .00016716
INCLINATION    = 97.2847
RA_OF_ASC_NODE = 253.4196
ARG_OF_PERICENTER = 87.9537
MEAN_ANOMALY   = 187.0656

EPHEMERIS_TYPE = 0
CLASSIFICATION_TYPE = U
NORAD_CAT_ID   = 67816
ELEMENT_SET_NO = 999
REV_AT_EPOCH   = 443
BSTAR          = -.10020525E-2
MEAN_MOTION_DOT = -.147718E-2
MEAN_MOTION_DDOT = 0

